NORAD_CAT_ID,OBJECT_NAME,OBJECT_TYPE,EPOCH,MEAN_MOTION,ECCENTRICITY,INCLINATION,RA_OF_ASC_NODE,ARG_OF_PERICENTER,MEAN_ANOMALY,BSTAR,MEAN_MOTION_DOT,MEAN_MOTION_DDOT,TLE_LINE0,TLE_LINE1,TLE_LINE2,SEMIMAJOR_AXIS,PERIOD,APOGEE,PERIGEE,DECAYED
53023.0,STARLINK-4284,PAYLOAD,2023-05-04 21:22:16,15.08838856,0.0001083,53.2174,71.9491,92.9414,267.1702,-3.3128e-05,-8.15e-06,0.0,0 STARLINK-4284,1 53023U 22076AP  23124.89046494 -.00000815  00000-0 -33128-4 0  9993,2 53023  53.2174  71.9491 0001083  92.9414 267.1702 15.08838856 46017,6917.884,95.438,540.498,539.0,0.0
53023.0,STARLINK-4284,PAYLOAD,2023-05-05 05:19:11,15.08846806,0.0001128,53.2175,70.4624,94.3507,265.7614,3.6933e-05,3e-06,0.0,0 STARLINK-4284,1 53023U 22076AP  23125.22165740  .00000300  00000-0  36933-4 0  9991,2 53023  53.2175  70.4624 0001128  94.3507 265.7614 15.08846806 46536,6917.86,95.437,540.505,538.944,0.0
53023.0,STARLINK-4284,PAYLOAD,2023-05-06 00:23:49,15.08841874,0.000109,53.2174,66.8941,97.1203,262.9913,-0.00010877,-2.019e-05,0.0,0 STARLINK-4284,1 53023U 22076AP  23126.01654776 -.00002019  00000-0 -10877-3 0  9990,2 53023  53.2174  66.8941 0001090  97.1203 262.9913 15.08841874 46652,6917.875,95.437,540.494,538.986,0.0
53023.0,STARLINK-4284,PAYLOAD,2023-05-06 03:34:34,15.08887672,9.36e-05,53.2174,66.2993,105.8983,254.2112,-0.00063194,-0.00010344,0.0,0 STARLINK-4284,1 53023U 22076AP  23126.14901501 -.00010344  00000-0 -63194-3 0  9995,2 53023  53.2174  66.2993 0000936 105.8983 254.2112 15.08887672 46676,6917.735,95.435,540.247,538.952,0.0
53023.0,STARLINK-4284,PAYLOAD,2023-05-07 01:49:58,15.08875051,0.0001081,53.2176,62.1353,101.5716,258.5398,-0.00017895,-3.137e-05,0.0,0 STARLINK-4284,1 53023U 22076AP  23127.07636753 -.00003137  00000-0 -17895-3 0  9991,2 53023  53.2176  62.1353 0001081 101.5716 258.5398 15.08875051 46819,6917.773,95.435,540.386,538.89,0.0
53023.0,STARLINK-4284,PAYLOAD,2023-05-08 01:40:47,15.08831369,0.0001258,53.2176,57.676,90.311,269.8026,-4.0425e-05,-9.31e-06,0.0,0 STARLINK-4284,1 53023U 22076AP  23128.06999454 -.00000931  00000-0 -40425-4 0  9996,2 53023  53.2176  57.6760 0001258  90.3110 269.8026 15.08831369 46962,6917.907,95.438,540.642,538.901,0.0
53023.0,STARLINK-4284,PAYLOAD,2023-05-08 19:10:01,15.08849829,0.0001212,53.2185,54.4048,84.7706,275.3425,-1.8596e-05,-5.84e-06,0.0,0 STARLINK-4284,1 53023U 22076AP  23128.79862382 -.00000584  00000-0 -18596-4 0  9993,2 53023  53.2185  54.4048 0001212  84.7706 275.3425 15.08849829 47072,6917.85,95.437,540.554,538.877,0.0
53023.0,STARLINK-4284,PAYLOAD,2023-05-08 22:20:46,15.08853784,0.0001249,53.2185,53.81,85.1207,274.9928,3.9477e-05,3.41e-06,0.0,0 STARLINK-4284,1 53023U 22076AP  23128.93109907  .00000341  00000-0  39477-4 0  9996,2 53023  53.2185  53.8100 0001249  85.1207 274.9928 15.08853784 46623,6917.838,95.437,540.567,538.839,0.0
53023.0,STARLINK-4284,PAYLOAD,2023-05-09 01:31:32,15.0885916,0.0001277,53.2182,53.2155,84.6895,275.4243,0.00010062,1.315e-05,0.0,0 STARLINK-4284,1 53023U 22076AP  23129.06357332  .00001315  00000-0  10062-3 0  9998,2 53023  53.2182  53.2155 0001277  84.6895 275.4243 15.08859160 47117,6917.822,95.436,540.57,538.803,0.0
53023.0,STARLINK-4284,PAYLOAD,2023-05-09 04:42:18,15.08865013,0.0001284,53.2183,52.6205,85.5183,274.5956,0.00014816,2.072e-05,0.0,0 STARLINK-4284,1 53023U 22076AP  23129.19604734  .00002072  00000-0  14816-3 0  9995,2 53023  53.2183  52.6205 0001284  85.5183 274.5956 15.08865013 46669,6917.804,95.436,540.557,538.781,0.0
53023.0,STARLINK-4284,PAYLOAD,2023-05-10 01:22:20,15.08848543,0.0001401,53.2176,48.7554,95.1315,264.9837,0.00021488,3.134e-05,0.0,0 STARLINK-4284,1 53023U 22076AP  23130.05718532  .00003134  00000-0  21488-3 0  9997,2 53023  53.2176  48.7554 0001401  95.1315 264.9837 15.08848543 46793,6917.854,95.437,540.688,538.75,0.0
53023.0,STARLINK-4284,PAYLOAD,2023-05-11 01:13:07,15.08851408,0.0001337,53.2177,44.2961,99.7939,260.3204,0.00030784,4.616e-05,0.0,0 STARLINK-4284,1 53023U 22076AP  23131.05078307  .00004616  00000-0  30784-3 0  9992,2 53023  53.2177  44.2961 0001337  99.7939 260.3204 15.08851408 47419,6917.846,95.437,540.635,538.786,0.0
53023.0,STARLINK-4284,PAYLOAD,2023-05-12 01:03:55,15.08828154,0.0001077,53.2166,39.8392,106.167,253.9441,1.7195e-05,-1.4e-07,0.0,0 STARLINK-4284,1 53023U 22076AP  23132.04439422 -.00000014  00000-0  17195-4 0  9992,2 53023  53.2166  39.8392 0001077 106.1670 253.9441 15.08828154 47560,6917.917,95.438,540.527,539.037,0.0
53023.0,STARLINK-4284,PAYLOAD,2023-05-12 23:19:19,15.08850016,0.0001087,53.2169,35.6716,94.7782,265.3335,0.00043614,6.662e-05,0.0,0 STARLINK-4284,1 53023U 22076AP  23132.97175145  .00006662  00000-0  43614-3 0  9991,2 53023  53.2169  35.6716 0001087  94.7782 265.3335 15.08850016 47701,6917.85,95.437,540.467,538.963,0.0
53023.0,STARLINK-4284,PAYLOAD,2023-05-13 00:54:42,15.08856834,0.0001093,53.2172,35.3746,91.671,268.4407,0.00061085,9.452e-05,0.0,0 STARLINK-4284,1 53023U 22076AP  23133.03798989  .00009452  00000-0  61085-3 0  9998,2 53023  53.2172  35.3746 0001093  91.6710 268.4407 15.08856834 47246,6917.829,95.436,540.45,538.938,0.0
53023.0,STARLINK-4284,PAYLOAD,2023-05-13 21:34:43,15.08843048,0.0001426,53.2174,31.5078,64.9304,295.1836,0.00016999,2.419e-05,0.0,0 STARLINK-4284,1 53023U 22076AP  23133.89911475  .00002419  00000-0  16999-3 0  9999,2 53023  53.2174  31.5078 0001426  64.9304 295.1836 15.08843048 47376,6917.871,95.437,540.723,538.75,0.0
53023.0,STARLINK-4284,PAYLOAD,2023-05-14 00:45:29,15.08851344,0.0001188,53.2172,30.9148,89.1253,270.9875,0.00040994,6.244e-05,0.0,0 STARLINK-4284,1 53023U 22076AP  23134.03159239  .00006244  00000-0  40994-3 0  9990,2 53023  53.2172  30.9148 0001188  89.1253 270.9875 15.08851344 47868,6917.846,95.437,540.533,538.889,0.0
53023.0,STARLINK-4284,PAYLOAD,2023-05-14 21:25:30,15.08843749,0.0001487,53.2178,27.0512,73.4678,286.6477,0.00024134,3.555e-05,0.0,0 STARLINK-4284,1 53023U 22076AP  23134.89271473  .00003555  00000-0  24134-3 0  9999,2 53023  53.2178  27.0512 0001487  73.4678 286.6477 15.08843749 47520,6917.869,95.437,540.763,538.705,0.0
53023.0,STARLINK-4284,PAYLOAD,2023-05-15 00:36:16,15.08849428,0.0001339,53.2177,26.4555,87.3634,272.7511,0.00027178,4.041e-05,0.0,0 STARLINK-4284,1 53023U 22076AP  23135.02519141  .00004041  00000-0  27178-3 0  9994,2 53023  53.2177  26.4555 0001339  87.3634 272.7511 15.08849428 48011,6917.852,95.437,540.643,538.79,0.0
53023.0,STARLINK-4284,PAYLOAD,2023-05-15 10:08:35,15.08839857,0.0001397,53.2188,24.6691,85.8817,274.2334,0.00012314,1.672e-05,0.0,0 STARLINK-4284,1 53023U 22076AP  23135.42263470  .00001672  00000-0  12314-3 0  9992,2 53023  53.2188  24.6691 0001397  85.8817 274.2334 15.08839857 48075,6917.881,95.438,540.712,538.779,0.0
53023.0,STARLINK-4284,PAYLOAD,2023-05-15 16:30:08,15.08839669,0.0001511,53.2175,23.4821,80.3087,279.8076,9.1823e-05,1.174e-05,0.0,0 STARLINK-4284,1 53023U 22076AP  23135.68759639  .00001174  00000-0  91823-4 0  9997,2 53023  53.2175  23.4821 0001511  80.3087 279.8076 15.08839669 47647,6917.881,95.438,540.792,538.701,0.0
53023.0,STARLINK-4284,PAYLOAD,2023-05-15 22:51:40,15.08838847,0.0001496,53.219,22.2919,79.6071,280.509,5.4896e-05,5.86e-06,0.0,0 STARLINK-4284,1 53023U 22076AP  23135.95255716  .00000586  00000-0  54896-4 0  9999,2 53023  53.2190  22.2919 0001496  79.6071 280.5090 15.08838847 47681,6917.884,95.438,540.784,538.714,0.0
53023.0,STARLINK-4284,PAYLOAD,2023-05-17 01:53:13,15.08848362,0.0001327,53.2184,17.2359,88.5903,271.5241,0.00015967,2.255e-05,0.0,0 STARLINK-4284,1 53023U 22076AP  23137.07863270  .00002255  00000-0  15967-3 0  9994,2 53023  53.2184  17.2359 0001327  88.5903 271.5241 15.08848362 48325,6917.855,95.437,540.638,538.802,0.0
53023.0,STARLINK-4284,PAYLOAD,2023-05-17 19:22:29,15.08833473,0.0001215,53.2176,13.9617,87.4195,272.6936,0.000137,1.893e-05,0.0,0 STARLINK-4284,1 53023U 22076AP  23137.80728113  .00001893  00000-0  13700-3 0  9991,2 53023  53.2176  13.9617 0001215  87.4195 272.6936 15.08833473 48435,6917.9,95.438,540.606,538.925,0.0
53023.0,STARLINK-4284,PAYLOAD,2023-05-17 20:57:52,15.0883411,0.000123,53.2178,13.6643,87.4427,272.6706,0.00014124,1.96e-05,0.0,0 STARLINK-4284,1 53023U 22076AP  23137.87352079  .00001960  00000-0  14124-3 0  9998,2 53023  53.2178  13.6643 0001230  87.4427 272.6706 15.08834110 47970,6917.898,95.438,540.614,538.912,0.0
53023.0,STARLINK-4284,PAYLOAD,2023-05-18 01:44:01,15.08839132,0.0001236,53.2177,12.7756,77.2889,282.8241,8.0913e-05,1e-05,0.0,0 STARLINK-4284,1 53023U 22076AP  23138.07223874  .00001000  00000-0  80913-4 0  9996,2 53023  53.2177  12.7756 0001236  77.2889 282.8241 15.08839132 48000,6917.883,95.438,540.603,538.893,0.0
53023.0,STARLINK-4284,PAYLOAD,2023-05-18 22:24:01,15.08844174,0.0001152,53.2163,8.9108,80.1434,279.9688,5.4687e-05,5.83e-06,0.0,0 STARLINK-4284,1 53023U 22076AP  23138.93335591  .00000583  00000-0  54687-4 0  9995,2 53023  53.2163   8.9108 0001152  80.1434 279.9688 15.08844174 48137,6917.868,95.437,540.53,538.936,0.0
53023.0,STARLINK-4284,PAYLOAD,2023-05-19 01:34:45,15.08910756,0.0002237,53.2165,8.3141,56.0083,304.1121,0.0010665,0.00016759,0.0,0 STARLINK-4284,1 53023U 22076AP  23139.06580377  .00016759  00000-0  10665-2 0  9992,2 53023  53.2165   8.3141 0002237  56.0083 304.1121 15.08910756 48624,6917.664,95.433,541.077,537.982,0.0
53023.0,STARLINK-4284,PAYLOAD,2023-05-19 22:14:49,15.08841023,0.0001031,53.2166,4.4495,77.6159,282.4948,4.9793e-05,5.05e-06,0.0,0 STARLINK-4284,1 53023U 22076AP  23139.92695825  .00000505  00000-0  49793-4 0  9990,2 53023  53.2166   4.4495 0001031  77.6159 282.4948 15.08841023 48285,6917.877,95.437,540.455,539.029,0.0
53023.0,STARLINK-4284,PAYLOAD,2023-05-20 04:36:21,15.08841917,0.000129,53.2168,3.2601,80.2643,279.8494,-0.00017782,-3.117e-05,0.0,0 STARLINK-4284,1 53023U 22076AP  23140.19191748 -.00003117  00000-0 -17782-3 0  9992,2 53023  53.2168   3.2601 0001290  80.2643 279.8494 15.08841917 48792,6917.875,95.437,540.632,538.847,0.0
